{"type": "FeatureCollection", "generated_at": "2026-10-10T07:15:53+00:00", "source": "https://dram-dev.github.io/intelligence-network/", "features": [{"type": "Feature", "id": 86, "geometry": {"type": "Point", "coordinates": [-90.3614, 39.0802]}, "properties": {"topic": "air", "metric": "ozone_ppb", "label": "Ozone", "title": "Ozone 77 ppb (AQI 122, unhealthy for sensitive groups) \u2014 Jersey County", "peak": 77.0, "unit": "ppb", "peak_display": "77 ppb (AQI 122, unhealthy for sensitive groups)", "county": "Jersey", "county_fips": "17083", "zip5": null, "opened_at": "2026-10-09T19:00:00+00:00", "updated_at": "2026-10-09T23:00:00+00:00", "status": "closed", "sensors": 1, "official_sources": 5, "severity": 0.5, "score": 1.188, "story": 27, "url": "https://dram-dev.github.io/intelligence-network/county/jersey.html"}}, {"type": "Feature", "id": 87, "geometry": {"type": "Point", "coordinates": [-89.9002, 38.8271]}, "properties": {"topic": "air", "metric": "ozone_ppb", "label": "Ozone", "title": "Ozone 76 ppb (AQI 118, unhealthy for sensitive groups) \u2014 Madison County", "peak": 76.0, "unit": "ppb", "peak_display": "76 ppb (AQI 118, unhealthy for sensitive groups)", "county": "Madison", "county_fips": "17119", "zip5": null, "opened_at": "2026-10-09T20:00:00+00:00", "updated_at": "2026-10-09T22:00:00+00:00", "status": "closed", "sensors": 1, "official_sources": 3, "severity": 0.5, "score": 1.187, "story": 27, "url": "https://dram-dev.github.io/intelligence-network/county/madison.html"}}, {"type": "Feature", "id": 83, "geometry": {"type": "Point", "coordinates": [-89.8212, 38.0565]}, "properties": {"topic": "air", "metric": "pm25_ugm3", "label": "PM2.5", "title": "PM2.5 54.4 \u00b5g/m\u00b3 (AQI 148, unhealthy for sensitive groups) \u2014 Randolph County", "peak": 54.4, "unit": "\u00b5g/m\u00b3", "peak_display": "54.4 \u00b5g/m\u00b3 (AQI 148, unhealthy for sensitive groups)", "county": "Randolph", "county_fips": "17157", "zip5": null, "opened_at": "2026-10-08T07:00:00+00:00", "updated_at": "2026-10-08T10:00:00+00:00", "status": "closed", "sensors": 1, "official_sources": 3, "severity": 0.4, "score": 0.95, "story": 24, "url": "https://dram-dev.github.io/intelligence-network/county/randolph.html"}}, {"type": "Feature", "id": 85, "geometry": {"type": "Point", "coordinates": [-89.9136, 40.237]}, "properties": {"topic": "soil", "metric": "soil_moisture_pct", "label": "Soil moisture", "title": "Soil moisture down to 9.7 % \u2014 Mason County", "peak": 9.7, "unit": "pct", "peak_display": "9.7 %", "county": "Mason", "county_fips": "17125", "zip5": null, "opened_at": "2026-10-08T12:00:00+00:00", "updated_at": "2026-10-08T12:00:00+00:00", "status": "closed", "sensors": 1, "official_sources": 1, "severity": 0.4, "score": 0.9, "story": 26, "url": "https://dram-dev.github.io/intelligence-network/county/mason.html"}}, {"type": "Feature", "id": 84, "geometry": {"type": "Point", "coordinates": [-89.9136, 40.237]}, "properties": {"topic": "soil", "metric": "soil_moisture_pct", "label": "Soil moisture", "title": "Soil moisture down to 10 % \u2014 Mason County", "peak": 10.0, "unit": "pct", "peak_display": "10 %", "county": "Mason", "county_fips": "17125", "zip5": null, "opened_at": "2026-10-07T12:00:00+00:00", "updated_at": "2026-10-07T12:00:00+00:00", "status": "closed", "sensors": 1, "official_sources": 1, "severity": 0.4, "score": 0.9, "story": 25, "url": "https://dram-dev.github.io/intelligence-network/county/mason.html"}}, {"type": "Feature", "id": 82, "geometry": {"type": "Point", "coordinates": [-89.9136, 40.237]}, "properties": {"topic": "soil", "metric": "soil_moisture_pct", "label": "Soil moisture", "title": "Soil moisture down to 9.2 % \u2014 Mason County", "peak": 9.2, "unit": "pct", "peak_display": "9.2 %", "county": "Mason", "county_fips": "17125", "zip5": null, "opened_at": "2026-10-05T12:00:00+00:00", "updated_at": "2026-10-05T12:00:00+00:00", "status": "closed", "sensors": 1, "official_sources": 1, "severity": 0.4, "score": 0.9, "story": 23, "url": "https://dram-dev.github.io/intelligence-network/county/mason.html"}}]}