{"type": "FeatureCollection", "generated_at": "2026-10-09T07:44:19+00:00", "source": "https://dram-dev.github.io/intelligence-network/", "features": [{"type": "Feature", "id": 21, "geometry": {"type": "Point", "coordinates": [-90.94, 39.3937]}, "properties": {"topic": "weather", "title": "Flood Warning", "severity": 0.75, "status": "closed", "counties": ["Calhoun", "Pike"], "fips": ["17013", "17149"], "opened_at": "2026-10-02T16:34:00+00:00", "updated_at": "2026-10-02T16:34:00+00:00", "brief": "An NWS Flood Warning is currently in effect [1]. This alert was issued at 11:34 AM [2].", "facts": ["NWS Flood Warning, issued 11:34 AM, ended 10:09 AM", "NWS Flood Warning, issued 11:34 AM, ended 11:34 PM"]}}, {"type": "Feature", "id": 18, "geometry": {"type": "Point", "coordinates": [-88.2157, 42.5543]}, "properties": {"topic": "weather", "title": "Flood Warning", "severity": 0.75, "status": "closed", "counties": ["McHenry"], "fips": ["17111"], "opened_at": "2026-10-02T14:53:00+00:00", "updated_at": "2026-10-02T14:53:00+00:00", "brief": "A National Weather Service Flood Warning is currently in effect [1]. The alert was issued at 9:53 AM [1].", "facts": ["NWS Flood Warning, issued 9:53 AM, ended 10:33 AM"]}}, {"type": "Feature", "id": 12, "geometry": {"type": "Point", "coordinates": [-90.2339, 40.7579]}, "properties": {"topic": "weather", "title": "Flood Warning", "severity": 0.75, "status": "closed", "counties": ["Knox"], "fips": ["17095"], "opened_at": "2026-10-02T04:53:00+00:00", "updated_at": "2026-10-02T13:23:00+00:00", "brief": "A NWS Flood Warning is in effect as of 8:23 AM [1]. Knox County verified a rainfall peak of 2.24 inches from multiple sources [2]. Fulton County verified a rainfall peak of 1.15 inches from multiple sources [3].", "facts": ["NWS Flood Warning, issued 8:23 AM, ended 7:32 PM", "Rainfall peak 2.67 in in Knox County, from -5 people and 6 official sources, verified", "Rainfall peak 1.15 in in Fulton County, from -1 people and 2 official sources, verified"]}}, {"type": "Feature", "id": 15, "geometry": {"type": "Point", "coordinates": [-88.695, 41.5083]}, "properties": {"topic": "weather", "title": "Flood Warning", "severity": 0.75, "status": "closed", "counties": ["Kendall"], "fips": ["17093"], "opened_at": "2026-10-02T10:51:00+00:00", "updated_at": "2026-10-02T10:51:00+00:00", "brief": "A NWS Flood Warning is currently in effect [1]. It was issued at 5:51 AM [1].", "facts": ["NWS Flood Warning, issued 5:51 AM, ended 8:22 PM"]}}, {"type": "Feature", "id": 22, "geometry": {"type": "Point", "coordinates": [-90.3204, 41.4873]}, "properties": {"topic": "weather", "title": "Rainfall 2.80 in \u2014 Henry County", "severity": 0.7, "status": "closed", "counties": ["Henry"], "fips": ["17073"], "opened_at": "2026-10-02T19:28:00+00:00", "updated_at": "2026-10-02T19:28:00+00:00", "brief": "Rainfall peaked at 2.80 inches in Henry County [1]. This measurement comes from one official source [1]. The data has been verified [1].", "facts": ["Rainfall peak 2.80 in in Henry County, from 1 official source, verified"]}}, {"type": "Feature", "id": 19, "geometry": {"type": "Point", "coordinates": [-90.3908, 41.5226]}, "properties": {"topic": "weather", "title": "Rainfall 3.50 in \u2014 Rock Island County", "severity": 0.7, "status": "closed", "counties": ["Rock Island"], "fips": ["17161"], "opened_at": "2026-10-02T15:14:00+00:00", "updated_at": "2026-10-02T15:14:00+00:00", "brief": "Rainfall peaked at 3.50 inches in Rock Island County [1]. This measurement came from one official source [1]. The data has been verified [1].", "facts": ["Rainfall peak 3.50 in in Rock Island County, from 1 official source, verified"]}}, {"type": "Feature", "id": 17, "geometry": {"type": "Point", "coordinates": [-89.969, 41.9706]}, "properties": {"topic": "weather", "title": "Rainfall 2.75 in \u2014 Whiteside County", "severity": 0.7, "status": "closed", "counties": ["Carroll", "Whiteside"], "fips": ["17015", "17195"], "opened_at": "2026-10-02T12:01:00+00:00", "updated_at": "2026-10-02T14:01:00+00:00", "brief": "Verified rainfall peaked at 2.85 inches in Carroll County [1]. Another verified report showed a peak of 2.75 inches in Whiteside County [2].", "facts": ["Rainfall peak 2.85 in in Carroll County, from 1 official source, verified", "Rainfall peak 2.75 in in Whiteside County, from 1 official source, verified"]}}, {"type": "Feature", "id": 24, "geometry": {"type": "Point", "coordinates": [-89.8212, 38.0565]}, "properties": {"topic": "air", "title": "PM2.5 54.4 \u00b5g/m\u00b3 (AQI 148, unhealthy for sensitive groups) \u2014 Randolph County", "severity": 0.4, "status": "closed", "counties": ["Randolph"], "fips": ["17157"], "opened_at": "2026-10-08T07:00:00+00:00", "updated_at": "2026-10-08T10:00:00+00:00", "brief": "PM2.5 levels peaked at 54.4 \u00b5g/m\u00b3 in Randolph County [1]. This reading was verified by three official sources [1].", "facts": ["PM2.5 peak 54.4 \u00b5g/m\u00b3 in Randolph County, from -2 people and 3 official sources, verified"]}}, {"type": "Feature", "id": 25, "geometry": {"type": "Point", "coordinates": [-89.9136, 40.237]}, "properties": {"topic": "soil", "title": "Soil moisture down to 10 % \u2014 Mason County", "severity": 0.4, "status": "closed", "counties": ["Mason"], "fips": ["17125"], "opened_at": "2026-10-07T12:00:00+00:00", "updated_at": "2026-10-07T12:00:00+00:00", "brief": "Soil moisture reached a peak of 10% in Mason County [1]. This data comes from one official source and has been verified [1].", "facts": ["Soil moisture peak 10 % in Mason County, from 1 official source, verified"]}}, {"type": "Feature", "id": 23, "geometry": {"type": "Point", "coordinates": [-89.9136, 40.237]}, "properties": {"topic": "soil", "title": "Soil moisture down to 9.2 % \u2014 Mason County", "severity": 0.4, "status": "closed", "counties": ["Mason"], "fips": ["17125"], "opened_at": "2026-10-05T12:00:00+00:00", "updated_at": "2026-10-05T12:00:00+00:00", "brief": "Soil moisture in Mason County reached a verified peak of 9.2%. [1] This data point comes from one official source. [1]", "facts": ["Soil moisture peak 9.2 % in Mason County, from 1 official source, verified"]}}, {"type": "Feature", "id": 20, "geometry": {"type": "Point", "coordinates": [-88.421, 40.2299]}, "properties": {"topic": "weather", "title": "Rainfall 1.27 in \u2014 Champaign County", "severity": 0.4, "status": "closed", "counties": ["Champaign"], "fips": ["17019"], "opened_at": "2026-10-02T14:00:00+00:00", "updated_at": "2026-10-02T14:00:00+00:00", "brief": "Rainfall peaked at 1.27 inches in Champaign County [1]. This measurement came from one official source [1]. The data has been verified [1].", "facts": ["Rainfall peak 1.27 in in Champaign County, from 1 official source, verified"]}}, {"type": "Feature", "id": 11, "geometry": {"type": "Point", "coordinates": [-89.8833, 39.9285]}, "properties": {"topic": "weather", "title": "Rainfall 1.01 in \u2014 Cass County", "severity": 0.4, "status": "closed", "counties": ["Cass", "Sangamon"], "fips": ["17017", "17167"], "opened_at": "2026-10-02T04:54:00+00:00", "updated_at": "2026-10-02T08:43:00+00:00", "brief": "Verified rainfall peaked at 1.60 inches in Sangamon County from one official source [1]. Cass County recorded a verified peak of 1.01 inches from two official sources [2].", "facts": ["Rainfall peak 1.60 in in Sangamon County, from 1 official source, verified", "Rainfall peak 1.01 in in Cass County, from -1 people and 2 official sources, verified"]}}, {"type": "Feature", "id": 10, "geometry": {"type": "Point", "coordinates": [-88.8805, 40.3042]}, "properties": {"topic": "weather", "title": "Rainfall 1.00 in \u2014 Logan County", "severity": 0.4, "status": "closed", "counties": ["Logan", "McLean", "Piatt"], "fips": ["17107", "17113", "17147"], "opened_at": "2026-10-02T04:30:00+00:00", "updated_at": "2026-10-02T08:30:00+00:00", "brief": "Verified rainfall peaked at 1.13 inches in McLean County [1]. Logan County recorded a verified peak of 1.00 inch [2]. Piatt County saw a verified peak of 1.17 inches [3].", "facts": ["Rainfall peak 1.13 in in McLean County, from -3 people and 4 official sources, verified", "Rainfall peak 1.00 in in Logan County, from -1 people and 2 official sources, verified", "Rainfall peak 1.17 in in Piatt County, from -1 people and 2 official sources, verified"]}}, {"type": "Feature", "id": 14, "geometry": {"type": "Point", "coordinates": [-87.9267, 40.2098]}, "properties": {"topic": "weather", "title": "Rainfall 1.07 in \u2014 Vermilion County", "severity": 0.4, "status": "closed", "counties": ["Vermilion"], "fips": ["17183"], "opened_at": "2026-10-02T08:30:00+00:00", "updated_at": "2026-10-02T08:30:00+00:00", "brief": "The storm produced a verified rainfall peak of 1.07 inches in Vermilion County [1]. This measurement comes from one official source [1].", "facts": ["Rainfall peak 1.07 in in Vermilion County, from 1 official source, verified"]}}, {"type": "Feature", "id": 16, "geometry": {"type": "Point", "coordinates": [-88.3994, 37.2869]}, "properties": {"topic": "weather", "title": "Flood Advisory", "severity": 0.25, "status": "closed", "counties": ["Pope"], "fips": ["17151"], "opened_at": "2026-10-02T13:11:00+00:00", "updated_at": "2026-10-02T13:11:00+00:00", "brief": "A NWS Flood Advisory is currently in effect [1]. It was issued at 8:11 AM [1].", "facts": ["NWS Flood Advisory, issued 8:11 AM, ended 1:15 PM"]}}]}